{
  "type": "FeatureCollection",
  "features": [
    {
      "type": "Feature",
      "properties": {
        "norad_id": 41772,
        "name": "SKYSAT-C5",
        "group": "resource",
        "lat": -31.468322227536934,
        "lon": -161.39800658047474,
        "alt_km": 465.13221324543247,
        "timestamp": "2025-12-04T21:36:15.531743+00:00",
        "meta_object_name": "SKYSAT-C5",
        "meta_object_id": "2016-058C",
        "meta_epoch": "2025-12-04T01:55:03.026496",
        "meta_mean_motion": 15.35427331,
        "meta_eccentricity": 0.00029032,
        "meta_inclination": 97.0762,
        "meta_ra_of_asc_node": 22.1744,
        "meta_arg_of_pericenter": 128.7771,
        "meta_mean_anomaly": 231.3733,
        "meta_ephemeris_type": 0,
        "meta_classification_type": "U",
        "meta_norad_cat_id": 41772,
        "meta_element_set_no": 999,
        "meta_rev_at_epoch": 51383,
        "meta_bstar": 0.0030293433,
        "meta_mean_motion_dot": 0.00105513,
        "meta_mean_motion_ddot": 0,
        "tle_line1": "1 41772U 16058C   25338.07989614  .00105513  00000+0  30293-2 0  9999",
        "tle_line2": "2 41772  97.0762  22.1744 0002903 128.7771 231.3733 15.35427331513837"
      },
      "geometry": {
        "type": "Point",
        "coordinates": [
          -161.39800658047474,
          -31.468322227536934
        ]
      }
    },
    {
      "type": "Feature",
      "properties": {
        "norad_id": 41773,
        "name": "SKYSAT-C2",
        "group": "resource",
        "lat": 9.21944999618833,
        "lon": -175.09022185317048,
        "alt_km": 458.3321900820092,
        "timestamp": "2025-12-04T21:36:15.531753+00:00",
        "meta_object_name": "SKYSAT-C2",
        "meta_object_id": "2016-058D",
        "meta_epoch": "2025-12-04T14:36:53.478720",
        "meta_mean_motion": 15.36993791,
        "meta_eccentricity": 0.00050045,
        "meta_inclination": 97.0364,
        "meta_ra_of_asc_node": 3.4822,
        "meta_arg_of_pericenter": 55.1675,
        "meta_mean_anomaly": 305.004,
        "meta_ephemeris_type": 0,
        "meta_classification_type": "U",
        "meta_norad_cat_id": 41773,
        "meta_element_set_no": 999,
        "meta_rev_at_epoch": 51511,
        "meta_bstar": 0.00064094721,
        "meta_mean_motion_dot": 0.00023167,
        "meta_mean_motion_ddot": 0,
        "tle_line1": "1 41773U 16058D   25338.60895230  .00023167  00000+0  64095-3 0  9991",
        "tle_line2": "2 41773  97.0364   3.4822 0005004  55.1675 305.0040 15.36993791515118"
      },
      "geometry": {
        "type": "Point",
        "coordinates": [
          -175.09022185317048,
          9.21944999618833
        ]
      }
    },
    {
      "type": "Feature",
      "properties": {
        "norad_id": 41774,
        "name": "SKYSAT-C3",
        "group": "resource",
        "lat": 19.300471794683986,
        "lon": -164.5449171867603,
        "alt_km": 434.16056610320175,
        "timestamp": "2025-12-04T21:36:15.531763+00:00",
        "meta_object_name": "SKYSAT-C3",
        "meta_object_id": "2016-058E",
        "meta_epoch": "2025-12-04T14:41:23.988480",
        "meta_mean_motion": 15.43974595,
        "meta_eccentricity": 0.00014016,
        "meta_inclination": 96.9306,
        "meta_ra_of_asc_node": 12.739,
        "meta_arg_of_pericenter": 101.9165,
        "meta_mean_anomaly": 258.2241,
        "meta_ephemeris_type": 0,
        "meta_classification_type": "U",
        "meta_norad_cat_id": 41774,
        "meta_element_set_no": 999,
        "meta_rev_at_epoch": 51600,
        "meta_bstar": 0.00075823552,
        "meta_mean_motion_dot": 0.00034552,
        "meta_mean_motion_ddot": 0,
        "tle_line1": "1 41774U 16058E   25338.61208320  .00034552  00000+0  75824-3 0  9993",
        "tle_line2": "2 41774  96.9306  12.7390 0001401 101.9165 258.2241 15.43974595516007"
      },
      "geometry": {
        "type": "Point",
        "coordinates": [
          -164.5449171867603,
          19.300471794683986
        ]
      }
    },
    {
      "type": "Feature",
      "properties": {
        "norad_id": 41785,
        "name": "ALSAT 1B",
        "group": "resource",
        "lat": -69.46133541971916,
        "lon": 149.6200532843073,
        "alt_km": 665.9768645153008,
        "timestamp": "2025-12-04T21:36:15.531774+00:00",
        "meta_object_name": "ALSAT 1B",
        "meta_object_id": "2016-059C",
        "meta_epoch": "2025-12-04T13:56:36.223584",
        "meta_mean_motion": 14.72062713,
        "meta_eccentricity": 0.0010444,
        "meta_inclination": 97.7819,
        "meta_ra_of_asc_node": 350.7228,
        "meta_arg_of_pericenter": 126.9388,
        "meta_mean_anomaly": 233.2778,
        "meta_ephemeris_type": 0,
        "meta_classification_type": "U",
        "meta_norad_cat_id": 41785,
        "meta_element_set_no": 999,
        "meta_rev_at_epoch": 49194,
        "meta_bstar": 0.00015621516,
        "meta_mean_motion_dot": 9.35e-06,
        "meta_mean_motion_ddot": 0,
        "tle_line1": "1 41785U 16059C   25338.58097481  .00000935  00000+0  15622-3 0  9994",
        "tle_line2": "2 41785  97.7819 350.7228 0010444 126.9388 233.2778 14.72062713491947"
      },
      "geometry": {
        "type": "Point",
        "coordinates": [
          149.6200532843073,
          -69.46133541971916
        ]
      }
    },
    {
      "type": "Feature",
      "properties": {
        "norad_id": 41787,
        "name": "PATHFINDER 1",
        "group": "resource",
        "lat": 74.44200049104923,
        "lon": -168.40983610189437,
        "alt_km": 641.4703443870194,
        "timestamp": "2025-12-04T21:36:15.531784+00:00",
        "meta_object_name": "PATHFINDER 1",
        "meta_object_id": "2016-059E",
        "meta_epoch": "2025-12-04T12:57:09.766368",
        "meta_mean_motion": 14.67299377,
        "meta_eccentricity": 0.00299894,
        "meta_inclination": 97.8138,
        "meta_ra_of_asc_node": 341.694,
        "meta_arg_of_pericenter": 106.1048,
        "meta_mean_anomaly": 254.3462,
        "meta_ephemeris_type": 0,
        "meta_classification_type": "U",
        "meta_norad_cat_id": 41787,
        "meta_element_set_no": 999,
        "meta_rev_at_epoch": 49116,
        "meta_bstar": 0.0002743957,
        "meta_mean_motion_dot": 1.512e-05,
        "meta_mean_motion_ddot": 0,
        "tle_line1": "1 41787U 16059E   25338.53969637  .00001512  00000+0  27440-3 0  9995",
        "tle_line2": "2 41787  97.8138 341.6940 0029989 106.1048 254.3462 14.67299377491161"
      },
      "geometry": {
        "type": "Point",
        "coordinates": [
          -168.40983610189437,
          74.44200049104923
        ]
      }
    },
    {
      "type": "Feature",
      "properties": {
        "norad_id": 41790,
        "name": "SCATSAT 1",
        "group": "resource",
        "lat": 50.70998026645713,
        "lon": -134.4430195125511,
        "alt_km": 592.4243814491183,
        "timestamp": "2025-12-04T21:36:15.531793+00:00",
        "meta_object_name": "SCATSAT 1",
        "meta_object_id": "2016-059H",
        "meta_epoch": "2025-12-04T14:31:48.298368",
        "meta_mean_motion": 14.7889291,
        "meta_eccentricity": 0.00558796,
        "meta_inclination": 98.1475,
        "meta_ra_of_asc_node": 35.1743,
        "meta_arg_of_pericenter": 153.8037,
        "meta_mean_anomaly": 206.602,
        "meta_ephemeris_type": 0,
        "meta_classification_type": "U",
        "meta_norad_cat_id": 41790,
        "meta_element_set_no": 999,
        "meta_rev_at_epoch": 7282,
        "meta_bstar": 0.00049794707,
        "meta_mean_motion_dot": 3.711e-05,
        "meta_mean_motion_ddot": 0,
        "tle_line1": "1 41790U 16059H   25338.60542012  .00003711  00000+0  49795-3 0  9991",
        "tle_line2": "2 41790  98.1475  35.1743 0055879 153.8037 206.6020 14.78892910 72825"
      },
      "geometry": {
        "type": "Point",
        "coordinates": [
          -134.4430195125511,
          50.70998026645713
        ]
      }
    },
    {
      "type": "Feature",
      "properties": {
        "norad_id": 41875,
        "name": "GOKTURK 1A",
        "group": "resource",
        "lat": -51.02909891527154,
        "lon": -118.43514998923168,
        "alt_km": 691.7810303330725,
        "timestamp": "2025-12-04T21:36:15.531804+00:00",
        "meta_object_name": "GOKTURK 1A",
        "meta_object_id": "2016-073A",
        "meta_epoch": "2025-12-04T15:16:25.398912",
        "meta_mean_motion": 14.62765999,
        "meta_eccentricity": 0.00012519,
        "meta_inclination": 98.143,
        "meta_ra_of_asc_node": 231.1097,
        "meta_arg_of_pericenter": 81.9031,
        "meta_mean_anomaly": 278.2313,
        "meta_ephemeris_type": 0,
        "meta_classification_type": "U",
        "meta_norad_cat_id": 41875,
        "meta_element_set_no": 999,
        "meta_rev_at_epoch": 48038,
        "meta_bstar": 0.00039493706,
        "meta_mean_motion_dot": 1.967e-05,
        "meta_mean_motion_ddot": 0,
        "tle_line1": "1 41875U 16073A   25338.63640508  .00001967  00000+0  39494-3 0  9999",
        "tle_line2": "2 41875  98.1430 231.1097 0001251  81.9031 278.2313 14.62765999480383"
      },
      "geometry": {
        "type": "Point",
        "coordinates": [
          -118.43514998923168,
          -51.02909891527154
        ]
      }
    }
  ]
}